STARLINK-35496          
1 66114U 25237A   25324.33335648  .00011790  00000+0  30409-3 0  9994
2 66114  53.1591 193.0546 0000768 166.4743  74.3191 15.39638720  5873
STARLINK-35428          
1 66115U 25237B   25324.00003472  .00046869  00000+0  11757-2 0  9995
2 66115  53.1598 194.7792 0001287  89.7336  25.3832 15.39589967  5825
STARLINK-35573          
1 66116U 25237C   25322.40436390  .00101610  00000+0  18139-2 0  9994
2 66116  53.1611 202.1102 0002430  37.3147 322.8030 15.49267070  5498
STARLINK-35572          
1 66117U 25237D   25324.33335648  .00009209  00000+0  24004-3 0  9993
2 66117  53.1598 193.1563 0001154  96.5283  92.8680 15.39605256  5871
STARLINK-35468          
1 66118U 25237E   25323.91902613  .00037871  00000+0  95179-3 0  9996
2 66118  53.1603 195.2109 0001115  96.0958 264.0174 15.39628601  5723
STARLINK-35547          
1 66119U 25237F   25324.33335648  .00011273  00000+0  29153-3 0  9999
2 66119  53.1588 193.0015 0001034 105.4604 161.1857 15.39605851  5874
STARLINK-35553          
1 66120U 25237G   25324.33335648  .00007630  00000+0  20071-3 0  9993
2 66120  53.1596 193.1050 0001567  92.3479 122.7016 15.39593937  5871
STARLINK-35631          
1 66121U 25237H   25324.33335648 -.02399340  00000+0 -60550-1 0  9994
2 66121  53.1592 192.9058 0000354  64.8593 249.8173 15.42872109  5877
STARLINK-35653          
1 66122U 25237J   25322.98283464  .00039477  00000+0  71267-3 0  9999
2 66122  53.1598 199.3179 0001121  96.3296 263.7841 15.49372472  5582
STARLINK-35628          
1 66123U 25237K   25323.36956669  .00088752  00000+0  15865-2 0  9998
2 66123  53.1606 197.4668 0001466  84.3380 275.7796 15.49294738  5645
STARLINK-35645          
1 66124U 25237L   25323.36923111  .00106143  00000+0  18924-2 0  9999
2 66124  53.1599 197.4645 0001693  88.5208 271.5995 15.49282778  5645
STARLINK-35649          
1 66125U 25237M   25323.36888332  .00110961  00000+0  19761-2 0  9998
2 66125  53.1607 197.4623 0001413  91.9949 268.1222 15.49292289  5645
